HULIANWANG DIGUI-113    
1 66923U 25285J   25349.89744674  .00000021  00000+0  10517-3 0  9999
2 66923  50.0087 104.3370 0005440 306.8018  53.2388 14.06057662  1350
CZ-8A R/B               
1 66924U 25285K   25349.59527145 -.00000010  00000+0  55539-4 0  9992
2 66924  50.0070 103.9992 0119303 116.8076 244.5099 14.30503022  1330
STARLINK-35945          
1 66925U 25286A   25349.91668981 -.01162648  00000+0 -43708-2 0  9995
2 66925  53.1571  34.5501 0000520  94.1201 251.5218 15.89739529  2503
STARLINK-35942          
1 66926U 25286B   25349.91668981 -.01178101  00000+0 -44158-2 0  9997
2 66926  53.1571  34.5412 0000613  94.8869 254.9184 15.89832875  2502
STARLINK-35943          
1 66927U 25286C   25349.91668981 -.01180822  00000+0 -44170-2 0  9995
2 66927  53.1571  34.5377 0000663  83.7672 267.8651 15.89878632  2500
STARLINK-35944          
1 66928U 25286D   25349.91668981 -.01172309  00000+0 -44008-2 0  9997
2 66928  53.1571  34.5451 0000614  84.7232 263.2072 15.89789276  2505
STARLINK-36169          
1 66929U 25286E   25349.91668981 -.01185443  00000+0 -44266-2 0  9997
2 66929  53.1570  34.5333 0000645  82.2774 271.3581 15.89923643  2505
STARLINK-36206          
1 66930U 25286F   25349.91668981 -.01190592  00000+0 -44382-2 0  9999
2 66930  53.1568  34.5294 0000560  95.9970 259.4194 15.89970119  2502
STARLINK-36130          
1 66931U 25286G   25349.91668981 -.01194780  00000+0 -44455-2 0  9994
2 66931  53.1569  34.5252 0000646  78.9752 278.5029 15.90015524  2503
STARLINK-36177          
1 66932U 25286H   25349.91668981 -.01204470  00000+0 -44753-2 0  9994
2 66932  53.1568  34.5210 0000662  80.0123 279.4708 15.90065847  2508
