CCSDS_OMM_VERS = 2.0
CREATION_DATE  = 
ORIGINATOR     = 

OBJECT_NAME    = HULIANWANG DIGUI-113
OBJECT_ID      = 2025-285J
CENTER_NAME    = EARTH
REF_FRAME      = TEME
TIME_SYSTEM    = UTC
MEAN_ELEMENT_THEORY = SGP/SGP4

EPOCH          = 2025-12-15T21:32:19.398336
MEAN_MOTION    = 14.06057662
ECCENTRICITY   = .00054402
INCLINATION    = 50.0087
RA_OF_ASC_NODE = 104.3370
ARG_OF_PERICENTER = 306.8018
MEAN_ANOMALY   = 53.2388

EPHEMERIS_TYPE = 0
CLASSIFICATION_TYPE = U
NORAD_CAT_ID   = 66923
ELEMENT_SET_NO = 999
REV_AT_EPOCH   = 135
BSTAR          = .10517271E-3
MEAN_MOTION_DOT = .21E-6
MEAN_MOTION_DDOT = 0

CCSDS_OMM_VERS = 2.0
CREATION_DATE  = 
ORIGINATOR     = 

OBJECT_NAME    = CZ-8A R/B
OBJECT_ID      = 2025-285K
CENTER_NAME    = EARTH
REF_FRAME      = TEME
TIME_SYSTEM    = UTC
MEAN_ELEMENT_THEORY = SGP/SGP4

EPOCH          = 2025-12-15T14:17:11.453280
MEAN_MOTION    = 14.30503022
ECCENTRICITY   = .01193038
INCLINATION    = 50.0070
RA_OF_ASC_NODE = 103.9992
ARG_OF_PERICENTER = 116.8076
MEAN_ANOMALY   = 244.5099

EPHEMERIS_TYPE = 0
CLASSIFICATION_TYPE = U
NORAD_CAT_ID   = 66924
ELEMENT_SET_NO = 999
REV_AT_EPOCH   = 133
BSTAR          = .55539475E-4
MEAN_MOTION_DOT = -.1E-6
MEAN_MOTION_DDOT = 0

CCSDS_OMM_VERS = 2.0
CREATION_DATE  = 
ORIGINATOR     = 

OBJECT_NAME    = STARLINK-35945
OBJECT_ID      = 2025-286A
CENTER_NAME    = EARTH
REF_FRAME      = TEME
TIME_SYSTEM    = UTC
MEAN_ELEMENT_THEORY = SGP/SGP4

EPOCH          = 2025-12-15T22:00:01.999584
MEAN_MOTION    = 15.89739529
ECCENTRICITY   = .00005202
INCLINATION    = 53.1571
RA_OF_ASC_NODE = 34.5501
ARG_OF_PERICENTER = 94.1201
MEAN_ANOMALY   = 251.5218

EPHEMERIS_TYPE = 0
CLASSIFICATION_TYPE = U
NORAD_CAT_ID   = 66925
ELEMENT_SET_NO = 999
REV_AT_EPOCH   = 250
BSTAR          = -.43708061E-2
MEAN_MOTION_DOT = -.1162648E-1
MEAN_MOTION_DDOT = 0

CCSDS_OMM_VERS = 2.0
CREATION_DATE  = 
ORIGINATOR     = 

OBJECT_NAME    = STARLINK-35942
OBJECT_ID      = 2025-286B
CENTER_NAME    = EARTH
REF_FRAME      = TEME
TIME_SYSTEM    = UTC
MEAN_ELEMENT_THEORY = SGP/SGP4

EPOCH          = 2025-12-15T22:00:01.999584
MEAN_MOTION    = 15.89832875
ECCENTRICITY   = .00006133
INCLINATION    = 53.1571
RA_OF_ASC_NODE = 34.5412
ARG_OF_PERICENTER = 94.8869
MEAN_ANOMALY   = 254.9184

EPHEMERIS_TYPE = 0
CLASSIFICATION_TYPE = U
NORAD_CAT_ID   = 66926
ELEMENT_SET_NO = 999
REV_AT_EPOCH   = 250
BSTAR          = -.44158399E-2
MEAN_MOTION_DOT = -.1178101E-1
MEAN_MOTION_DDOT = 0

CCSDS_OMM_VERS = 2.0
CREATION_DATE  = 
ORIGINATOR     = 

OBJECT_NAME    = STARLINK-35943
OBJECT_ID      = 2025-286C
CENTER_NAME    = EARTH
REF_FRAME      = TEME
TIME_SYSTEM    = UTC
MEAN_ELEMENT_THEORY = SGP/SGP4

EPOCH          = 2025-12-15T22:00:01.999584
MEAN_MOTION    = 15.89878632
ECCENTRICITY   = .00006634
INCLINATION    = 53.1571
RA_OF_ASC_NODE = 34.5377
ARG_OF_PERICENTER = 83.7672
MEAN_ANOMALY   = 267.8651

EPHEMERIS_TYPE = 0
CLASSIFICATION_TYPE = U
NORAD_CAT_ID   = 66927
ELEMENT_SET_NO = 999
REV_AT_EPOCH   = 250
BSTAR          = -.44169856E-2
MEAN_MOTION_DOT = -.1180822E-1
MEAN_MOTION_DDOT = 0

CCSDS_OMM_VERS = 2.0
CREATION_DATE  = 
ORIGINATOR     = 

OBJECT_NAME    = STARLINK-35944
OBJECT_ID      = 2025-286D
CENTER_NAME    = EARTH
REF_FRAME      = TEME
TIME_SYSTEM    = UTC
MEAN_ELEMENT_THEORY = SGP/SGP4

EPOCH          = 2025-12-15T22:00:01.999584
MEAN_MOTION    = 15.89789276
ECCENTRICITY   = .00006144
INCLINATION    = 53.1571
RA_OF_ASC_NODE = 34.5451
ARG_OF_PERICENTER = 84.7232
MEAN_ANOMALY   = 263.2072

EPHEMERIS_TYPE = 0
CLASSIFICATION_TYPE = U
NORAD_CAT_ID   = 66928
ELEMENT_SET_NO = 999
REV_AT_EPOCH   = 250
BSTAR          = -.44008479E-2
MEAN_MOTION_DOT = -.1172309E-1
MEAN_MOTION_DDOT = 0

CCSDS_OMM_VERS = 2.0
CREATION_DATE  = 
ORIGINATOR     = 

OBJECT_NAME    = STARLINK-36169
OBJECT_ID      = 2025-286E
CENTER_NAME    = EARTH
REF_FRAME      = TEME
TIME_SYSTEM    = UTC
MEAN_ELEMENT_THEORY = SGP/SGP4

EPOCH          = 2025-12-15T22:00:01.999584
MEAN_MOTION    = 15.89923643
ECCENTRICITY   = .00006454
INCLINATION    = 53.1570
RA_OF_ASC_NODE = 34.5333
ARG_OF_PERICENTER = 82.2774
MEAN_ANOMALY   = 271.3581

EPHEMERIS_TYPE = 0
CLASSIFICATION_TYPE = U
NORAD_CAT_ID   = 66929
ELEMENT_SET_NO = 999
REV_AT_EPOCH   = 250
BSTAR          = -.44265762E-2
MEAN_MOTION_DOT = -.1185443E-1
MEAN_MOTION_DDOT = 0

CCSDS_OMM_VERS = 2.0
CREATION_DATE  = 
ORIGINATOR     = 

OBJECT_NAME    = STARLINK-36206
OBJECT_ID      = 2025-286F
CENTER_NAME    = EARTH
REF_FRAME      = TEME
TIME_SYSTEM    = UTC
MEAN_ELEMENT_THEORY = SGP/SGP4

EPOCH          = 2025-12-15T22:00:01.999584
MEAN_MOTION    = 15.89970119
ECCENTRICITY   = .00005606
INCLINATION    = 53.1568
RA_OF_ASC_NODE = 34.5294
ARG_OF_PERICENTER = 95.9970
MEAN_ANOMALY   = 259.4194

EPHEMERIS_TYPE = 0
CLASSIFICATION_TYPE = U
NORAD_CAT_ID   = 66930
ELEMENT_SET_NO = 999
REV_AT_EPOCH   = 250
BSTAR          = -.4438221E-2
MEAN_MOTION_DOT = -.1190592E-1
MEAN_MOTION_DDOT = 0

CCSDS_OMM_VERS = 2.0
CREATION_DATE  = 
ORIGINATOR     = 

OBJECT_NAME    = STARLINK-36130
OBJECT_ID      = 2025-286G
CENTER_NAME    = EARTH
REF_FRAME      = TEME
TIME_SYSTEM    = UTC
MEAN_ELEMENT_THEORY = SGP/SGP4

EPOCH          = 2025-12-15T22:00:01.999584
MEAN_MOTION    = 15.90015524
ECCENTRICITY   = .00006464
INCLINATION    = 53.1569
RA_OF_ASC_NODE = 34.5252
ARG_OF_PERICENTER = 78.9752
MEAN_ANOMALY   = 278.5029

EPHEMERIS_TYPE = 0
CLASSIFICATION_TYPE = U
NORAD_CAT_ID   = 66931
ELEMENT_SET_NO = 999
REV_AT_EPOCH   = 250
BSTAR          = -.44454999E-2
MEAN_MOTION_DOT = -.119478E-1
MEAN_MOTION_DDOT = 0

CCSDS_OMM_VERS = 2.0
CREATION_DATE  = 
ORIGINATOR     = 

OBJECT_NAME    = STARLINK-36177
OBJECT_ID      = 2025-286H
CENTER_NAME    = EARTH
REF_FRAME      = TEME
TIME_SYSTEM    = UTC
MEAN_ELEMENT_THEORY = SGP/SGP4

EPOCH          = 2025-12-15T22:00:01.999584
MEAN_MOTION    = 15.90065847
ECCENTRICITY   = .00006626
INCLINATION    = 53.1568
RA_OF_ASC_NODE = 34.5210
ARG_OF_PERICENTER = 80.0123
MEAN_ANOMALY   = 279.4708

EPHEMERIS_TYPE = 0
CLASSIFICATION_TYPE = U
NORAD_CAT_ID   = 66932
ELEMENT_SET_NO = 999
REV_AT_EPOCH   = 250
BSTAR          = -.44752662E-2
MEAN_MOTION_DOT = -.120447E-1
MEAN_MOTION_DDOT = 0

